NORAD_CAT_ID,OBJECT_NAME,OBJECT_TYPE,EPOCH,MEAN_MOTION,ECCENTRICITY,INCLINATION,RA_OF_ASC_NODE,ARG_OF_PERICENTER,MEAN_ANOMALY,BSTAR,MEAN_MOTION_DOT,MEAN_MOTION_DDOT,TLE_LINE0,TLE_LINE1,TLE_LINE2,SEMIMAJOR_AXIS,PERIOD,APOGEE,PERIGEE,DECAYED
52493.0,STARLINK-3883,PAYLOAD,2023-10-11 13:36:47,15.08835548,0.0001439,53.2186,40.1476,84.6341,275.4815,-7.4339e-05,-1.471e-05,0.0,0 STARLINK-3883,1 52493U 22049AU  23284.56721220 -.00001471  00000-0 -74339-4 0  9999,2 52493  53.2186  40.1476 0001439  84.6341 275.4815 15.08835548 79684,6917.894,95.438,540.754,538.764,0.0
52493.0,STARLINK-3883,PAYLOAD,2023-10-12 13:27:34,15.08844372,0.0001098,53.2187,35.6878,68.3407,291.7702,0.00014454,2.014e-05,0.0,0 STARLINK-3883,1 52493U 22049AU  23285.56081210  .00002014  00000-0  14454-3 0  9991,2 52493  53.2187  35.6878 0001098  68.3407 291.7702 15.08844372 79673,6917.867,95.437,540.492,538.972,0.0
52493.0,STARLINK-3883,PAYLOAD,2023-10-12 16:38:19,15.08853834,0.0001413,53.2186,35.09,97.3327,262.7826,0.00037084,5.621e-05,0.0,0 STARLINK-3883,1 52493U 22049AU  23285.69328540  .00005621  00000-0  37084-3 0  9996,2 52493  53.2186  35.0900 0001413  97.3327 262.7826 15.08853834 79854,6917.838,95.437,540.681,538.726,0.0
52493.0,STARLINK-3883,PAYLOAD,2023-10-13 00:35:16,15.08829576,0.0001415,53.2194,33.6059,101.0711,259.044,-4.688e-05,-1.034e-05,0.0,0 STARLINK-3883,1 52493U 22049AU  23286.02449888 -.00001034  00000-0 -46880-4 0  9994,2 52493  53.2194  33.6059 0001415 101.0711 259.0440 15.08829576 79907,6917.912,95.438,540.756,538.798,0.0
52493.0,STARLINK-3883,PAYLOAD,2023-10-13 13:18:23,15.08809378,0.000135,53.218,31.2283,92.9338,267.1809,-0.00019572,-3.399e-05,0.0,0 STARLINK-3883,1 52493U 22049AU  23286.55443993 -.00003399  00000-0 -19572-3 0  9996,2 52493  53.2180  31.2283 0001350  92.9338 267.1809 15.08809378 79981,6917.974,95.439,540.773,538.905,0.0
52493.0,STARLINK-3883,PAYLOAD,2023-10-13 14:53:46,15.08820384,0.0001613,53.218,30.9289,91.5128,268.6049,-3.6302e-05,-8.65e-06,0.0,0 STARLINK-3883,1 52493U 22049AU  23286.62067425 -.00000865  00000-0 -36302-4 0  9992,2 52493  53.2180  30.9289 0001613  91.5128 268.6049 15.08820384 79990,6917.94,95.439,540.921,538.689,0.0
52493.0,STARLINK-3883,PAYLOAD,2023-10-14 09:58:22,15.08857628,0.0002118,53.2171,27.3646,75.3584,284.7642,0.00054769,8.443e-05,0.0,0 STARLINK-3883,1 52493U 22049AU  23287.41554356  .00008443  00000-0  54769-3 0  9998,2 52493  53.2171  27.3646 0002118  75.3584 284.7642 15.08857628 80119,6917.827,95.436,541.157,538.226,0.0
52493.0,STARLINK-3883,PAYLOAD,2023-10-14 13:09:08,15.08878482,0.000168,53.219,26.7627,101.4168,258.7013,0.0011815,0.00018585,0.0,0 STARLINK-3883,1 52493U 22049AU  23287.54801673  .00018585  00000-0  11815-2 0  9991,2 52493  53.2190  26.7627 0001680 101.4168 258.7013 15.08878482 79970,6917.763,95.435,540.79,538.466,0.0
52493.0,STARLINK-3883,PAYLOAD,2023-10-15 12:59:54,15.08876952,0.0001658,53.219,22.3037,94.4962,265.6219,0.00038874,5.91e-05,0.0,0 STARLINK-3883,1 52493U 22049AU  23288.54160005  .00005910  00000-0  38874-3 0  9992,2 52493  53.2190  22.3037 0001658  94.4962 265.6219 15.08876952 80286,6917.767,95.435,540.779,538.485,0.0
52493.0,STARLINK-3883,PAYLOAD,2023-10-15 16:10:40,15.08880219,0.0001671,53.2189,21.7087,94.9244,265.1939,0.00036101,5.468e-05,0.0,0 STARLINK-3883,1 52493U 22049AU  23288.67407539  .00005468  00000-0  36101-3 0  9991,2 52493  53.2189  21.7087 0001671  94.9244 265.1939 15.08880219 80145,6917.757,95.435,540.778,538.467,0.0
52493.0,STARLINK-3883,PAYLOAD,2023-10-16 06:29:09,15.08833856,0.0001634,53.2191,19.0319,102.6898,257.4276,-0.00066034,-0.0001078,0.0,0 STARLINK-3883,1 52493U 22049AU  23289.27024352 -.00010780  00000-0 -66034-3 0  9999,2 52493  53.2191  19.0319 0001634 102.6898 257.4276 15.08833856 80397,6917.899,95.438,540.895,538.634,0.0
52493.0,STARLINK-3883,PAYLOAD,2023-10-16 12:50:42,15.08830411,0.0001666,53.2187,17.8432,94.381,265.7372,-0.00055026,-9.032e-05,0.0,0 STARLINK-3883,1 52493U 22049AU  23289.53520889 -.00009032  00000-0 -55026-3 0  9991,2 52493  53.2187  17.8432 0001666  94.3810 265.7372 15.08830411 80270,6917.91,95.438,540.927,538.622,0.0
52493.0,STARLINK-3883,PAYLOAD,2023-10-17 12:41:29,15.08840503,0.0001619,53.2182,13.3871,94.2955,265.8222,0.00026851,3.988e-05,0.0,0 STARLINK-3883,1 52493U 22049AU  23290.52881661  .00003988  00000-0  26851-3 0  9996,2 52493  53.2182  13.3871 0001619  94.2955 265.8222 15.08840503 80582,6917.879,95.438,540.864,538.624,0.0
52493.0,STARLINK-3883,PAYLOAD,2023-10-17 22:13:49,15.08834393,0.0001448,53.2166,11.6015,84.9563,275.1594,0.00050874,7.817e-05,0.0,0 STARLINK-3883,1 52493U 22049AU  23290.92626287  .00007817  00000-0  50874-3 0  9998,2 52493  53.2166  11.6015 0001448  84.9563 275.1594 15.08834393 80481,6917.898,95.438,540.764,538.761,0.0
52493.0,STARLINK-3883,PAYLOAD,2023-10-18 12:32:17,15.08837955,0.0001418,53.2164,8.9256,91.3337,268.7817,0.00034094,5.142e-05,0.0,0 STARLINK-3883,1 52493U 22049AU  23291.52242459  .00005142  00000-0  34094-3 0  9995,2 52493  53.2164   8.9256 0001418  91.3337 268.7817 15.08837955 80734,6917.887,95.438,540.733,538.771,0.0
52493.0,STARLINK-3883,PAYLOAD,2023-10-19 12:23:03,15.08856852,0.0001526,53.2163,4.4645,86.349,273.7677,0.00036582,5.541e-05,0.0,0 STARLINK-3883,1 52493U 22049AU  23292.51601547  .00005541  00000-0  36582-3 0  9999,2 52493  53.2163   4.4645 0001526  86.3490 273.7677 15.08856852 80883,6917.829,95.436,540.75,538.638,0.0
52493.0,STARLINK-3883,PAYLOAD,2023-10-19 21:55:22,15.08846012,0.0001546,53.217,2.6823,92.6862,267.4307,0.00013643,1.884e-05,0.0,0 STARLINK-3883,1 52493U 22049AU  23292.91345826  .00001884  00000-0  13643-3 0  9997,2 52493  53.2170   2.6823 0001546  92.6862 267.4307 15.08846012 80780,6917.862,95.437,540.797,538.658,0.0
52493.0,STARLINK-3883,PAYLOAD,2023-10-20 04:16:55,15.08839007,0.0001901,53.2168,1.493,95.7575,264.3634,1.8194e-05,1e-08,0.0,0 STARLINK-3883,1 52493U 22049AU  23293.17842142  .00000001  00000-0  18194-4 0  9996,2 52493  53.2168   1.4930 0001901  95.7575 264.3634 15.08839007 80980,6917.883,95.438,541.064,538.433,0.0
52493.0,STARLINK-3883,PAYLOAD,2023-10-20 12:13:51,15.08837228,0.0001616,53.2171,0.0049,94.3664,265.7513,-4.4945e-05,-1.003e-05,0.0,0 STARLINK-3883,1 52493U 22049AU  23293.50962429 -.00001003  00000-0 -44945-4 0  9992,2 52493  53.2171   0.0049 0001616  94.3664 265.7513 15.08837228 80879,6917.889,95.438,540.872,538.636,0.0
52493.0,STARLINK-3883,PAYLOAD,2023-10-21 10:29:15,15.08838608,0.0001553,53.2169,355.8422,92.0608,268.0562,3.372e-05,2.49e-06,0.0,0 STARLINK-3883,1 52493U 22049AU  23294.43698697  .00000249  00000-0  33720-4 0  9996,2 52493  53.2169 355.8422 0001553  92.0608 268.0562 15.08838608 81172,6917.885,95.438,540.824,538.675,0.0
52493.0,STARLINK-3883,PAYLOAD,2023-10-21 21:36:57,15.08845222,0.000155,53.2165,353.7597,91.2451,268.8719,0.00010191,1.334e-05,0.0,0 STARLINK-3883,1 52493U 22049AU  23294.90066414  .00001334  00000-0  10191-3 0  9996,2 52493  53.2165 353.7597 0001550  91.2451 268.8719 15.08845222 81084,6917.864,95.437,540.802,538.657,0.0
52493.0,STARLINK-3883,PAYLOAD,2023-10-22 10:20:02,15.08843732,0.0001642,53.2167,351.3803,97.882,262.2359,0.00027387,4.074e-05,0.0,0 STARLINK-3883,1 52493U 22049AU  23295.43058778  .00004074  00000-0  27387-3 0  9998,2 52493  53.2167 351.3803 0001642  97.8820 262.2359 15.08843732 81165,6917.869,95.437,540.87,538.598,0.0
52493.0,STARLINK-3883,PAYLOAD,2023-10-22 21:27:45,15.08837693,0.000167,53.2174,349.3,90.7235,269.3949,0.00013197,1.813e-05,0.0,0 STARLINK-3883,1 52493U 22049AU  23295.89427231  .00001813  00000-0  13197-3 0  9994,2 52493  53.2174 349.3000 0001670  90.7235 269.3949 15.08837693 81232,6917.887,95.438,540.908,538.597,0.0
52493.0,STARLINK-3883,PAYLOAD,2023-10-23 10:10:50,15.08839683,0.0001502,53.2173,346.9194,98.4761,261.6401,8.0469e-05,9.93e-06,0.0,0 STARLINK-3883,1 52493U 22049AU  23296.42419161  .00000993  00000-0  80469-4 0  9992,2 52493  53.2173 346.9194 0001502  98.4761 261.6401 15.08839683 81319,6917.881,95.438,540.785,538.707,0.0
52493.0,STARLINK-3883,PAYLOAD,2023-10-24 10:01:37,15.08841012,0.0001355,53.2171,342.462,87.7384,272.3763,0.00013647,1.885e-05,0.0,0 STARLINK-3883,1 52493U 22049AU  23297.41779270  .00001885  00000-0  13647-3 0  9996,2 52493  53.2171 342.4620 0001355  87.7384 272.3763 15.08841012 81623,6917.877,95.437,540.68,538.805,0.0
52493.0,STARLINK-3883,PAYLOAD,2023-10-24 13:12:23,15.08846098,0.0001404,53.2165,341.8649,90.6519,269.4634,0.00017192,2.45e-05,0.0,0 STARLINK-3883,1 52493U 22049AU  23297.55027032  .00002450  00000-0  17192-3 0  9991,2 52493  53.2165 341.8649 0001404  90.6519 269.4634 15.08846098 81485,6917.862,95.437,540.698,538.755,0.0
52493.0,STARLINK-3883,PAYLOAD,2023-10-25 06:41:37,15.0884322,0.0001297,53.2167,338.592,88.0831,272.0309,0.00017876,2.558e-05,0.0,0 STARLINK-3883,1 52493U 22049AU  23298.27891116  .00002558  00000-0  17876-3 0  9991,2 52493  53.2167 338.5920 0001297  88.0831 272.0309 15.08843220 81595,6917.871,95.437,540.633,538.838,0.0
52493.0,STARLINK-3883,PAYLOAD,2023-10-26 03:21:38,15.08835145,0.0001498,53.2174,334.7259,89.4591,270.6573,-4.1944e-05,-9.55e-06,0.0,0 STARLINK-3883,1 52493U 22049AU  23299.14003406 -.00000955  00000-0 -41944-4 0  9990,2 52493  53.2174 334.7259 0001498  89.4591 270.6573 15.08835145 81883,6917.895,95.438,540.797,538.724,0.0
52493.0,STARLINK-3883,PAYLOAD,2023-10-26 08:07:48,15.08838312,0.0001662,53.2187,333.8376,101.0515,259.0664,9.2755e-05,1.188e-05,0.0,0 STARLINK-3883,1 52493U 22049AU  23299.33875577  .00001188  00000-0  92755-4 0  9990,2 52493  53.2187 333.8376 0001662 101.0515 259.0664 15.08838312 81754,6917.886,95.438,540.9,538.601,0.0
52493.0,STARLINK-3883,PAYLOAD,2023-10-27 11:09:20,15.08853613,0.0001734,53.2168,328.7812,103.6043,256.5143,0.00015237,2.139e-05,0.0,0 STARLINK-3883,1 52493U 22049AU  23300.46482298  .00002139  00000-0  15237-3 0  9997,2 52493  53.2168 328.7812 0001734 103.6043 256.5143 15.08853613 82087,6917.839,95.437,540.903,538.504,0.0
